STARLINK-30716
1 57936U 23148B   25312.03762320 -.00000463  00000+0 -35043-5 0  9998
2 57936  53.1613 229.4950 0001301 111.7303 248.3837 15.30187250119797